{"type": "FeatureCollection", "features": [ {"type": "Feature", "properties": {"norad_id": 34949, "name": "COSMOS 2251 DEB", "group": "cosmos-2251-debris", "lat": 56.61767366826779, "lon": -76.74385588804107, "alt_km": 694.7927684489596, "timestamp": "2025-12-02T19:35:50.950091+00:00", "meta": {"OBJECT_NAME": "COSMOS 2251 DEB", "OBJECT_ID": "1993-036AEC", "EPOCH": "2025-12-01T16:59:10.526208", "MEAN_MOTION": 14.73873554, "ECCENTRICITY": 0.00804803, "INCLINATION": 74.0165, "RA_OF_ASC_NODE": 131.2052, "ARG_OF_PERICENTER": 278.7598, "MEAN_ANOMALY": 80.4466, "EPHEMERIS_TYPE": 0, "CLASSIFICATION_TYPE": "U", "NORAD_CAT_ID": 34949, "ELEMENT_SET_NO": 999, "REV_AT_EPOCH": 88199, "BSTAR": 0.00050422652, "MEAN_MOTION_DOT": 3.446e-05, "MEAN_MOTION_DDOT": 0}, "tle": {"line1": "1 34949U 93036AEC 25335.70776072  .00003446  00000+0  50423-3 0  9997", "line2": "2 34949  74.0165 131.2052 0080480 278.7598  80.4466 14.73873554881994"}}, "geometry": {"type": "Point", "coordinates": [-76.74385588804107, 56.61767366826779]}}, {"type": "Feature", "properties": {"norad_id": 34953, "name": "COSMOS 2251 DEB", "group": "cosmos-2251-debris", "lat": -73.26105004579496, "lon": -24.837969919414434, "alt_km": 695.8536557313637, "timestamp": "2025-12-02T19:35:50.950101+00:00", "meta": {"OBJECT_NAME": "COSMOS 2251 DEB", "OBJECT_ID": "1993-036AEG", "EPOCH": "2025-12-01T13:12:33.253632", "MEAN_MOTION": 14.68789994, "ECCENTRICITY": 0.00575572, "INCLINATION": 74.0939, "RA_OF_ASC_NODE": 49.072, "ARG_OF_PERICENTER": 44.6171, "MEAN_ANOMALY": 18.8426, "EPHEMERIS_TYPE": 0, "CLASSIFICATION_TYPE": "U", "NORAD_CAT_ID": 34953, "ELEMENT_SET_NO": 999, "REV_AT_EPOCH": 87964, "BSTAR": 0.00082002331, "MEAN_MOTION_DOT": 4.878e-05, "MEAN_MOTION_DDOT": 0}, "tle": {"line1": "1 34953U 93036AEG 25335.55038488  .00004878  00000+0  82002-3 0  9995", "line2": "2 34953  74.0939  49.0720 0057557  44.6171  18.8426 14.68789994879640"}}, "geometry": {"type": "Point", "coordinates": [-24.837969919414434, -73.26105004579496]}}, {"type": "Feature", "properties": {"norad_id": 34955, "name": "COSMOS 2251 DEB", "group": "cosmos-2251-debris", "lat": 5.6788611887097575, "lon": -91.6830054414936, "alt_km": 519.8235739369347, "timestamp": "2025-12-02T19:35:50.950111+00:00", "meta": {"OBJECT_NAME": "COSMOS 2251 DEB", "OBJECT_ID": "1993-036AEJ", "EPOCH": "2025-12-01T13:09:43.011072", "MEAN_MOTION": 15.0013692, "ECCENTRICITY": 0.00783487, "INCLINATION": 74.0371, "RA_OF_ASC_NODE": 269.2628, "ARG_OF_PERICENTER": 341.7271, "MEAN_ANOMALY": 18.1102, "EPHEMERIS_TYPE": 0, "CLASSIFICATION_TYPE": "U", "NORAD_CAT_ID": 34955, "ELEMENT_SET_NO": 999, "REV_AT_EPOCH": 89866, "BSTAR": 0.0010112451, "MEAN_MOTION_DOT": 0.00013453, "MEAN_MOTION_DDOT": 0}, "tle": {"line1": "1 34955U 93036AEJ 25335.54841448  .00013453  00000+0  10112-2 0  9995", "line2": "2 34955  74.0371 269.2628 0078348 341.7271  18.1102 15.00136920898667"}}, "geometry": {"type": "Point", "coordinates": [-91.6830054414936, 5.6788611887097575]}}, {"type": "Feature", "properties": {"norad_id": 34962, "name": "COSMOS 2251 DEB", "group": "cosmos-2251-debris", "lat": -72.06616060783514, "lon": 149.67351346269552, "alt_km": 735.3182682143797, "timestamp": "2025-12-02T19:35:50.950121+00:00", "meta": {"OBJECT_NAME": "COSMOS 2251 DEB", "OBJECT_ID": "1993-036AER", "EPOCH": "2025-12-02T01:42:53.375904", "MEAN_MOTION": 14.46464357, "ECCENTRICITY": 0.00185426, "INCLINATION": 74.0305, "RA_OF_ASC_NODE": 213.2902, "ARG_OF_PERICENTER": 327.8619, "MEAN_ANOMALY": 32.1407, "EPHEMERIS_TYPE": 0, "CLASSIFICATION_TYPE": "U", "NORAD_CAT_ID": 34962, "ELEMENT_SET_NO": 999, "REV_AT_EPOCH": 87424, "BSTAR": 0.00050722321, "MEAN_MOTION_DOT": 1.801e-05, "MEAN_MOTION_DDOT": 0}, "tle": {"line1": "1 34962U 93036AER 25336.07145111  .00001801  00000+0  50722-3 0  9992", "line2": "2 34962  74.0305 213.2902 0018542 327.8619  32.1407 14.46464357874246"}}, "geometry": {"type": "Point", "coordinates": [149.67351346269552, -72.06616060783514]}}, {"type": "Feature", "properties": {"norad_id": 34963, "name": "COSMOS 2251 DEB", "group": "cosmos-2251-debris", "lat": 15.1014261737882, "lon": 65.65632614295637, "alt_km": 737.0322517247541, "timestamp": "2025-12-02T19:35:50.950131+00:00", "meta": {"OBJECT_NAME": "COSMOS 2251 DEB", "OBJECT_ID": "1993-036AES", "EPOCH": "2025-11-20T14:36:14.688576", "MEAN_MOTION": 14.50758017, "ECCENTRICITY": 0.00421878, "INCLINATION": 74.1713, "RA_OF_ASC_NODE": 84.0219, "ARG_OF_PERICENTER": 284.4626, "MEAN_ANOMALY": 75.1856, "EPHEMERIS_TYPE": 0, "CLASSIFICATION_TYPE": "U", "NORAD_CAT_ID": 34963, "ELEMENT_SET_NO": 999, "REV_AT_EPOCH": 86480, "BSTAR": 0.0012237467, "MEAN_MOTION_DOT": 4.847e-05, "MEAN_MOTION_DDOT": 0}, "tle": {"line1": "1 34963U 93036AES 25324.60850334  .00004847  00000+0  12237-2 0  9990", "line2": "2 34963  74.1713  84.0219 0042187 284.4626  75.1856 14.50758017864804"}}, "geometry": {"type": "Point", "coordinates": [65.65632614295637, 15.1014261737882]}}, {"type": "Feature", "properties": {"norad_id": 34964, "name": "COSMOS 2251 DEB", "group": "cosmos-2251-debris", "lat": 33.48189675305014, "lon": 16.070722054536734, "alt_km": 1041.8712589117413, "timestamp": "2025-12-02T19:35:50.950142+00:00", "meta": {"OBJECT_NAME": "COSMOS 2251 DEB", "OBJECT_ID": "1993-036AET", "EPOCH": "2025-12-01T10:51:07.970112", "MEAN_MOTION": 14.00515212, "ECCENTRICITY": 0.02132053, "INCLINATION": 73.9732, "RA_OF_ASC_NODE": 7.4842, "ARG_OF_PERICENTER": 228.1536, "MEAN_ANOMALY": 130.1229, "EPHEMERIS_TYPE": 0, "CLASSIFICATION_TYPE": "U", "NORAD_CAT_ID": 34964, "ELEMENT_SET_NO": 999, "REV_AT_EPOCH": 84320, "BSTAR": 0.0017784594, "MEAN_MOTION_DOT": 3.191e-05, "MEAN_MOTION_DDOT": 0}, "tle": {"line1": "1 34964U 93036AET 25335.45217558  .00003191  00000+0  17785-2 0  9995", "line2": "2 34964  73.9732   7.4842 0213205 228.1536 130.1229 14.00515212843200"}}, "geometry": {"type": "Point", "coordinates": [16.070722054536734, 33.48189675305014]}}, {"type": "Feature", "properties": {"norad_id": 34965, "name": "COSMOS 2251 DEB", "group": "cosmos-2251-debris", "lat": -6.9492499530569525, "lon": -30.958571510324962, "alt_km": 733.0096292034332, "timestamp": "2025-12-02T19:35:50.950152+00:00", "meta": {"OBJECT_NAME": "COSMOS 2251 DEB", "OBJECT_ID": "1993-036AEU", "EPOCH": "2025-12-02T03:49:02.675136", "MEAN_MOTION": 14.48660518, "ECCENTRICITY": 0.00264925, "INCLINATION": 74.0504, "RA_OF_ASC_NODE": 148.2743, "ARG_OF_PERICENTER": 277.1444, "MEAN_ANOMALY": 82.6704, "EPHEMERIS_TYPE": 0, "CLASSIFICATION_TYPE": "U", "NORAD_CAT_ID": 34965, "ELEMENT_SET_NO": 999, "REV_AT_EPOCH": 86960, "BSTAR": 0.0003671965, "MEAN_MOTION_DOT": 1.361e-05, "MEAN_MOTION_DDOT": 0}, "tle": {"line1": "1 34965U 93036AEU 25336.15905874  .00001361  00000+0  36720-3 0  9997", "line2": "2 34965  74.0504 148.2743 0026492 277.1444  82.6704 14.48660518869609"}}, "geometry": {"type": "Point", "coordinates": [-30.958571510324962, -6.9492499530569525]}}, {"type": "Feature", "properties": {"norad_id": 34967, "name": "COSMOS 2251 DEB", "group": "cosmos-2251-debris", "lat": -69.53795918875022, "lon": 142.6630435313119, "alt_km": 777.330043349788, "timestamp": "2025-12-02T19:35:50.950187+00:00", "meta": {"OBJECT_NAME": "COSMOS 2251 DEB", "OBJECT_ID": "1993-036AEW", "EPOCH": "2025-12-01T02:30:41.683104", "MEAN_MOTION": 14.44168549, "ECCENTRICITY": 0.00374829, "INCLINATION": 73.9933, "RA_OF_ASC_NODE": 275.5612, "ARG_OF_PERICENTER": 64.8384, "MEAN_ANOMALY": 295.6653, "EPHEMERIS_TYPE": 0, "CLASSIFICATION_TYPE": "U", "NORAD_CAT_ID": 34967, "ELEMENT_SET_NO": 999, "REV_AT_EPOCH": 64789, "BSTAR": 0.00079995093, "MEAN_MOTION_DOT": 2.741e-05, "MEAN_MOTION_DDOT": 0}, "tle": {"line1": "1 34967U 93036AEW 25335.10464911  .00002741  00000+0  79995-3 0  9999", "line2": "2 34967  73.9933 275.5612 0037482  64.8384 295.6653 14.44168549647896"}}, "geometry": {"type": "Point", "coordinates": [142.6630435313119, -69.53795918875022]}}, {"type": "Feature", "properties": {"norad_id": 34968, "name": "COSMOS 2251 DEB", "group": "cosmos-2251-debris", "lat": -64.19323660932845, "lon": -130.30453862415382, "alt_km": 710.4155398787971, "timestamp": "2025-12-02T19:35:50.950198+00:00", "meta": {"OBJECT_NAME": "COSMOS 2251 DEB", "OBJECT_ID": "1993-036AEX", "EPOCH": "2025-12-02T01:48:56.339712", "MEAN_MOTION": 14.59372646, "ECCENTRICITY": 0.00862303, "INCLINATION": 74.039, "RA_OF_ASC_NODE": 267.3956, "ARG_OF_PERICENTER": 30.5548, "MEAN_ANOMALY": 330.0599, "EPHEMERIS_TYPE": 0, "CLASSIFICATION_TYPE": "U", "NORAD_CAT_ID": 34968, "ELEMENT_SET_NO": 999, "REV_AT_EPOCH": 88322, "BSTAR": 0.00022982614, "MEAN_MOTION_DOT": 1.114e-05, "MEAN_MOTION_DDOT": 0}, "tle": {"line1": "1 34968U 93036AEX 25336.07565208  .00001114  00000+0  22983-3 0  9996", "line2": "2 34968  74.0390 267.3956 0086230  30.5548 330.0599 14.59372646883226"}}, "geometry": {"type": "Point", "coordinates": [-130.30453862415382, -64.19323660932845]}}, {"type": "Feature", "properties": {"norad_id": 34969, "name": "COSMOS 2251 DEB", "group": "cosmos-2251-debris", "lat": -73.89701931299778, "lon": -41.90715792053203, "alt_km": 795.5712764145401, "timestamp": "2025-12-02T19:35:50.950209+00:00", "meta": {"OBJECT_NAME": "COSMOS 2251 DEB", "OBJECT_ID": "1993-036AEY", "EPOCH": "2025-11-27T22:39:52.818912", "MEAN_MOTION": 14.32217313, "ECCENTRICITY": 0.0074445, "INCLINATION": 74.0147, "RA_OF_ASC_NODE": 50.1773, "ARG_OF_PERICENTER": 186.867, "MEAN_ANOMALY": 173.1469, "EPHEMERIS_TYPE": 0, "CLASSIFICATION_TYPE": "U", "NORAD_CAT_ID": 34969, "ELEMENT_SET_NO": 999, "REV_AT_EPOCH": 64925, "BSTAR": 0.00041332, "MEAN_MOTION_DOT": 1.123e-05, "MEAN_MOTION_DDOT": 0}, "tle": {"line1": "1 34969U 93036AEY 25331.94436133  .00001123  00000+0  41332-3 0  9991", "line2": "2 34969  74.0147  50.1773 0074445 186.8670 173.1469 14.32217313649253"}}, "geometry": {"type": "Point", "coordinates": [-41.90715792053203, -73.89701931299778]}}]}